[
    {
        "Altitude(m)": 611967.2108687112,
        "Argument of Periapsis(deg)": 0.0,
        "Eccentricity": 0.0,
        "Inclination(deg)": 60.0,
        "Latitude(deg)": 59.1402583842295,
        "Longitude(deg)": 81.0920219050942,
        "Mean Anomaly(deg)": 98.18180000000001,
        "RAAN(deg)": 75.0,
        "Satellite Name": "Test1 336",
        "Satellite Number": 336,
        "Semi-Major Axis(m)": 6980739.136638005,
        "Time(s)": 0
    },
    {
        "Altitude(m)": 611934.4109559666,
        "Argument of Periapsis(deg)": 0.00010418945913296404,
        "Eccentricity": 0.0,
        "Inclination(deg)": 60.0,
        "Latitude(deg)": 58.986620973482104,
        "Longitude(deg)": 82.21527100703668,
        "Mean Anomaly(deg)": 98.80190614546183,
        "RAAN(deg)": 74.99957995086027,
        "Satellite Name": "Test1 336",
        "Satellite Number": 336,
        "Semi-Major Axis(m)": 6980739.136638005,
        "Time(s)": 10
    }
]